{"type": "FeatureCollection", "features": [ {"type": "Feature", "properties": {"norad_id": 30579, "name": "FENGYUN 1C DEB", "group": "fengyun-1c-debris", "lat": -49.19718728733008, "lon": 170.92772097043263, "alt_km": 887.5755457193536, "timestamp": "2025-12-02T07:10:09.392772+00:00", "meta": {"OBJECT_NAME": "FENGYUN 1C DEB", "OBJECT_ID": "1999-025ALV", "EPOCH": "2025-12-01T13:42:37.897344", "MEAN_MOTION": 14.0523242, "ECCENTRICITY": 0.00536506, "INCLINATION": 98.8083, "RA_OF_ASC_NODE": 0.5685, "ARG_OF_PERICENTER": 134.2316, "MEAN_ANOMALY": 17.0732, "EPHEMERIS_TYPE": 0, "CLASSIFICATION_TYPE": "U", "NORAD_CAT_ID": 30579, "ELEMENT_SET_NO": 999, "REV_AT_EPOCH": 96300, "BSTAR": 0.00019367847, "MEAN_MOTION_DOT": 2.75e-06, "MEAN_MOTION_DDOT": 0}, "tle": {"line1": "1 30579U 99025ALV 25335.57127196  .00000275  00000+0  19368-3 0  9998", "line2": "2 30579  98.8083   0.5685 0053650 134.2316  17.0732 14.05232420963006"}}, "geometry": {"type": "Point", "coordinates": [170.92772097043263, -49.19718728733008]}}, {"type": "Feature", "properties": {"norad_id": 30594, "name": "FENGYUN 1C DEB", "group": "fengyun-1c-debris", "lat": 52.74190371451823, "lon": 179.92824157205007, "alt_km": 774.2894083753336, "timestamp": "2025-12-02T07:10:09.392782+00:00", "meta": {"OBJECT_NAME": "FENGYUN 1C DEB", "OBJECT_ID": "1999-025ALZ", "EPOCH": "2025-12-01T20:45:30.147264", "MEAN_MOTION": 14.173238, "ECCENTRICITY": 0.0193883, "INCLINATION": 99.1521, "RA_OF_ASC_NODE": 191.7175, "ARG_OF_PERICENTER": 347.2101, "MEAN_ANOMALY": 12.4192, "EPHEMERIS_TYPE": 0, "CLASSIFICATION_TYPE": "U", "NORAD_CAT_ID": 30594, "ELEMENT_SET_NO": 999, "REV_AT_EPOCH": 97425, "BSTAR": 0.00018671, "MEAN_MOTION_DOT": 4.04e-06, "MEAN_MOTION_DDOT": 0}, "tle": {"line1": "1 30594U 99025ALZ 25335.86493226  .00000404  00000+0  18671-3 0  9997", "line2": "2 30594  99.1521 191.7175 0193883 347.2101  12.4192 14.17323800974256"}}, "geometry": {"type": "Point", "coordinates": [179.92824157205007, 52.74190371451823]}}, {"type": "Feature", "properties": {"norad_id": 30596, "name": "FENGYUN 1C DEB", "group": "fengyun-1c-debris", "lat": 74.3158731759647, "lon": -173.90999407380016, "alt_km": 910.2133872617114, "timestamp": "2025-12-02T07:10:09.392792+00:00", "meta": {"OBJECT_NAME": "FENGYUN 1C DEB", "OBJECT_ID": "1999-025AMB", "EPOCH": "2025-12-01T19:32:28.177728", "MEAN_MOTION": 14.34299251, "ECCENTRICITY": 0.024791, "INCLINATION": 98.4125, "RA_OF_ASC_NODE": 333.8125, "ARG_OF_PERICENTER": 321.7714, "MEAN_ANOMALY": 159.4596, "EPHEMERIS_TYPE": 0, "CLASSIFICATION_TYPE": "U", "NORAD_CAT_ID": 30596, "ELEMENT_SET_NO": 999, "REV_AT_EPOCH": 98404, "BSTAR": 0.0005149, "MEAN_MOTION_DOT": 1.99e-05, "MEAN_MOTION_DDOT": 0}, "tle": {"line1": "1 30596U 99025AMB 25335.81421502  .00001990  00000+0  51490-3 0  9999", "line2": "2 30596  98.4125 333.8125 0247910 321.7714 159.4596 14.34299251984041"}}, "geometry": {"type": "Point", "coordinates": [-173.90999407380016, 74.3158731759647]}}, {"type": "Feature", "properties": {"norad_id": 30597, "name": "FENGYUN 1C DEB", "group": "fengyun-1c-debris", "lat": -12.911532434833292, "lon": -86.55745682963388, "alt_km": 625.68240107364, "timestamp": "2025-12-02T07:10:09.392802+00:00", "meta": {"OBJECT_NAME": "FENGYUN 1C DEB", "OBJECT_ID": "1999-025AMC", "EPOCH": "2025-12-01T07:03:52.343712", "MEAN_MOTION": 14.90669108, "ECCENTRICITY": 0.00441043, "INCLINATION": 98.9396, "RA_OF_ASC_NODE": 270.2386, "ARG_OF_PERICENTER": 203.2344, "MEAN_ANOMALY": 156.6878, "EPHEMERIS_TYPE": 0, "CLASSIFICATION_TYPE": "U", "NORAD_CAT_ID": 30597, "ELEMENT_SET_NO": 999, "REV_AT_EPOCH": 98366, "BSTAR": 0.0066143369, "MEAN_MOTION_DOT": 0.00066582, "MEAN_MOTION_DDOT": 0}, "tle": {"line1": "1 30597U 99025AMC 25335.29435583  .00066582  00000+0  66143-2 0  9994", "line2": "2 30597  98.9396 270.2386 0044104 203.2344 156.6878 14.90669108983666"}}, "geometry": {"type": "Point", "coordinates": [-86.55745682963388, -12.911532434833292]}}, {"type": "Feature", "properties": {"norad_id": 30599, "name": "FENGYUN 1C DEB", "group": "fengyun-1c-debris", "lat": -70.31478766056422, "lon": 143.16356342500987, "alt_km": 947.5376336720219, "timestamp": "2025-12-02T07:10:09.392812+00:00", "meta": {"OBJECT_NAME": "FENGYUN 1C DEB", "OBJECT_ID": "1999-025AME", "EPOCH": "2025-12-01T11:22:06.331296", "MEAN_MOTION": 14.19601762, "ECCENTRICITY": 0.03032277, "INCLINATION": 98.6039, "RA_OF_ASC_NODE": 347.3969, "ARG_OF_PERICENTER": 17.3723, "MEAN_ANOMALY": 343.7561, "EPHEMERIS_TYPE": 0, "CLASSIFICATION_TYPE": "U", "NORAD_CAT_ID": 30599, "ELEMENT_SET_NO": 999, "REV_AT_EPOCH": 97007, "BSTAR": 0.00092885432, "MEAN_MOTION_DOT": 3.061e-05, "MEAN_MOTION_DDOT": 0}, "tle": {"line1": "1 30599U 99025AME 25335.47368439  .00003061  00000+0  92885-3 0  9997", "line2": "2 30599  98.6039 347.3969 0303227  17.3723 343.7561 14.19601762970073"}}, "geometry": {"type": "Point", "coordinates": [143.16356342500987, -70.31478766056422]}}, {"type": "Feature", "properties": {"norad_id": 30600, "name": "FENGYUN 1C DEB", "group": "fengyun-1c-debris", "lat": 75.51087076914827, "lon": 136.5764642958035, "alt_km": 1100.9589991147704, "timestamp": "2025-12-02T07:10:09.392822+00:00", "meta": {"OBJECT_NAME": "FENGYUN 1C DEB", "OBJECT_ID": "1999-025AMF", "EPOCH": "2025-11-30T15:24:54.916992", "MEAN_MOTION": 14.07030871, "ECCENTRICITY": 0.0330604, "INCLINATION": 98.3855, "RA_OF_ASC_NODE": 280.231, "ARG_OF_PERICENTER": 282.0902, "MEAN_ANOMALY": 74.3412, "EPHEMERIS_TYPE": 0, "CLASSIFICATION_TYPE": "U", "NORAD_CAT_ID": 30600, "ELEMENT_SET_NO": 999, "REV_AT_EPOCH": 94262, "BSTAR": 0.0058342, "MEAN_MOTION_DOT": 0.00016035, "MEAN_MOTION_DDOT": 0}, "tle": {"line1": "1 30600U 99025AMF 25334.64230228  .00016035  00000+0  58342-2 0  9996", "line2": "2 30600  98.3855 280.2310 0330604 282.0902  74.3412 14.07030871942629"}}, "geometry": {"type": "Point", "coordinates": [136.5764642958035, 75.51087076914827]}}, {"type": "Feature", "properties": {"norad_id": 30602, "name": "FENGYUN 1C DEB", "group": "fengyun-1c-debris", "lat": -66.3130822759641, "lon": 47.4388314437777, "alt_km": 608.9979980867074, "timestamp": "2025-12-02T07:10:09.392832+00:00", "meta": {"OBJECT_NAME": "FENGYUN 1C DEB", "OBJECT_ID": "1999-025AMH", "EPOCH": "2025-12-01T06:26:58.621056", "MEAN_MOTION": 14.8858694, "ECCENTRICITY": 0.0006245, "INCLINATION": 99.0331, "RA_OF_ASC_NODE": 247.5274, "ARG_OF_PERICENTER": 160.2937, "MEAN_ANOMALY": 330.9054, "EPHEMERIS_TYPE": 0, "CLASSIFICATION_TYPE": "U", "NORAD_CAT_ID": 30602, "ELEMENT_SET_NO": 999, "REV_AT_EPOCH": 97634, "BSTAR": 0.010344, "MEAN_MOTION_DOT": 0.00097635, "MEAN_MOTION_DDOT": 0}, "tle": {"line1": "1 30602U 99025AMH 25335.26873404  .00097635  00000+0  10344-1 0  9990", "line2": "2 30602  99.0331 247.5274 0006245 160.2937 330.9054 14.88586940976340"}}, "geometry": {"type": "Point", "coordinates": [47.4388314437777, -66.3130822759641]}}, {"type": "Feature", "properties": {"norad_id": 30603, "name": "FENGYUN 1C DEB", "group": "fengyun-1c-debris", "lat": -24.33653297808103, "lon": 176.46328717487825, "alt_km": 837.5525867578172, "timestamp": "2025-12-02T07:10:09.392842+00:00", "meta": {"OBJECT_NAME": "FENGYUN 1C DEB", "OBJECT_ID": "1999-025AMJ", "EPOCH": "2025-12-01T00:57:08.256960", "MEAN_MOTION": 13.84062641, "ECCENTRICITY": 0.01828766, "INCLINATION": 98.4105, "RA_OF_ASC_NODE": 359.172, "ARG_OF_PERICENTER": 237.311, "MEAN_ANOMALY": 178.3209, "EPHEMERIS_TYPE": 0, "CLASSIFICATION_TYPE": "U", "NORAD_CAT_ID": 30603, "ELEMENT_SET_NO": 999, "REV_AT_EPOCH": 94714, "BSTAR": 0.0013950271, "MEAN_MOTION_DOT": 1.728e-05, "MEAN_MOTION_DDOT": 0}, "tle": {"line1": "1 30603U 99025AMJ 25335.03967890  .00001728  00000+0  13950-2 0  9994", "line2": "2 30603  98.4105 359.1720 0182876 237.3110 178.3209 13.84062641947147"}}, "geometry": {"type": "Point", "coordinates": [176.46328717487825, -24.33653297808103]}}, {"type": "Feature", "properties": {"norad_id": 30604, "name": "FENGYUN 1C DEB", "group": "fengyun-1c-debris", "lat": -9.555625983998285, "lon": -169.83133993805254, "alt_km": 950.4594957970112, "timestamp": "2025-12-02T07:10:09.392853+00:00", "meta": {"OBJECT_NAME": "FENGYUN 1C DEB", "OBJECT_ID": "1999-025AMK", "EPOCH": "2025-12-01T15:42:10.674144", "MEAN_MOTION": 14.23580003, "ECCENTRICITY": 0.021037, "INCLINATION": 98.404, "RA_OF_ASC_NODE": 10.9785, "ARG_OF_PERICENTER": 39.2606, "MEAN_ANOMALY": 88.3958, "EPHEMERIS_TYPE": 0, "CLASSIFICATION_TYPE": "U", "NORAD_CAT_ID": 30604, "ELEMENT_SET_NO": 999, "REV_AT_EPOCH": 97681, "BSTAR": 0.00031299117, "MEAN_MOTION_DOT": 8.51e-06, "MEAN_MOTION_DDOT": 0}, "tle": {"line1": "1 30604U 99025AMK 25335.65429021  .00000851  00000+0  31299-3 0  9995", "line2": "2 30604  98.4040  10.9785 0210370  39.2606  88.3958 14.23580003976817"}}, "geometry": {"type": "Point", "coordinates": [-169.83133993805254, -9.555625983998285]}}, {"type": "Feature", "properties": {"norad_id": 30606, "name": "FENGYUN 1C DEB", "group": "fengyun-1c-debris", "lat": -15.881815590677352, "lon": -10.944905343744368, "alt_km": 856.6647106726678, "timestamp": "2025-12-02T07:10:09.392864+00:00", "meta": {"OBJECT_NAME": "FENGYUN 1C DEB", "OBJECT_ID": "1999-025AMM", "EPOCH": "2025-12-01T12:10:23.049408", "MEAN_MOTION": 14.57511952, "ECCENTRICITY": 0.02138428, "INCLINATION": 98.097, "RA_OF_ASC_NODE": 345.9632, "ARG_OF_PERICENTER": 172.0959, "MEAN_ANOMALY": 341.112, "EPHEMERIS_TYPE": 0, "CLASSIFICATION_TYPE": "U", "NORAD_CAT_ID": 30606, "ELEMENT_SET_NO": 999, "REV_AT_EPOCH": 99078, "BSTAR": 0.00067067017, "MEAN_MOTION_DOT": 4.124e-05, "MEAN_MOTION_DDOT": 0}, "tle": {"line1": "1 30606U 99025AMM 25335.50721122  .00004124  00000+0  67067-3 0  9997", "line2": "2 30606  98.0970 345.9632 0213842 172.0959 341.1120 14.57511952990780"}}, "geometry": {"type": "Point", "coordinates": [-10.944905343744368, -15.881815590677352]}}]}